DEAR-5                  
1 67070U 25296B   26004.61379680  .00005767  00000+0  29430-3 0  9991
2 67070  41.3577 331.0885 0019895 181.0689 179.0092 15.17067224  3424
RAISE-4                 
1 67073U 25297B   26004.60307631  .00006244  00000+0  41596-3 0  9999
2 67073  97.4870 156.5390 0011456 234.5227 125.4933 15.07395594  3234
ELECTRON KICK STAGE R/B 
1 67074U 25297C   26004.38955071  .00491715  74958-4  19813-2 0  9997
2 67074  97.4771 158.0727 0160009 187.0427 172.8589 15.69340207  3310
STARLINK-36230          
1 67075U 25298A   26004.58335648  .00046836  00000+0  76022-3 0  9991
2 67075  69.9994 185.6628 0003640 269.4750 182.2095 15.52492932  4648
STARLINK-36240          
1 67076U 25298B   26004.58335648  .00058105  00000+0  94124-3 0  9997
2 67076  69.9995 185.6600 0003526 264.4874 189.1135 15.52490407  4641
STARLINK-36243          
1 67077U 25298C   26004.58335648 -.00060366  00000+0 -98470-3 0  9990
2 67077  69.9995 185.6580 0003314 269.2738 186.2274 15.52554045  4647
STARLINK-36236          
1 67078U 25298D   26004.58335648 -.00045707  00000+0 -74369-3 0  9994
2 67078  69.9994 185.6553 0003393 269.9119 187.5034 15.52548677  4646
STARLINK-36159          
1 67079U 25298E   26004.58335648  .00003787  00000+0  89810-4 0  9993
2 67079  69.9997 185.8341 0003398 265.9603  36.3005 15.42717375  4647
STARLINK-36158          
1 67080U 25298F   26004.58335648 -.01002748  00000+0 -17608-1 0  9997
2 67080  69.9997 185.6518 0003413 274.4416 186.7486 15.52872968  4585
STARLINK-35864          
1 67081U 25298G   26004.58335648 -.02092632  00000+0 -41103-1 0  9997
2 67081  69.9996 185.6517 0003707 273.3341 188.1504 15.50491573  4646
STARLINK-36035          
1 67082U 25298H   26004.58335648 -.02081559  00000+0 -45556-1 0  9990
2 67082  69.9996 185.6584 0003702 274.4903 180.1349 15.47410808  4649
STARLINK-36170          
1 67083U 25298J   26004.58335648 -.00044665  00000+0 -72663-3 0  9997
2 67083  69.9996 185.6439 0003495 268.1093 198.8926 15.52545961  4640
