CCSDS_OMM_VERS = 2.0
CREATION_DATE  = 
ORIGINATOR     = 

OBJECT_NAME    = DEAR-5
OBJECT_ID      = 2025-296B
CENTER_NAME    = EARTH
REF_FRAME      = TEME
TIME_SYSTEM    = UTC
MEAN_ELEMENT_THEORY = SGP/SGP4

EPOCH          = 2026-01-04T14:43:52.043520
MEAN_MOTION    = 15.17067224
ECCENTRICITY   = .00198958
INCLINATION    = 41.3577
RA_OF_ASC_NODE = 331.0885
ARG_OF_PERICENTER = 181.0689
MEAN_ANOMALY   = 179.0092

EPHEMERIS_TYPE = 0
CLASSIFICATION_TYPE = U
NORAD_CAT_ID   = 67070
ELEMENT_SET_NO = 999
REV_AT_EPOCH   = 342
BSTAR          = .29430406E-3
MEAN_MOTION_DOT = .5767E-4
MEAN_MOTION_DDOT = 0

CCSDS_OMM_VERS = 2.0
CREATION_DATE  = 
ORIGINATOR     = 

OBJECT_NAME    = RAISE-4
OBJECT_ID      = 2025-297B
CENTER_NAME    = EARTH
REF_FRAME      = TEME
TIME_SYSTEM    = UTC
MEAN_ELEMENT_THEORY = SGP/SGP4

EPOCH          = 2026-01-04T14:28:25.793184
MEAN_MOTION    = 15.07395594
ECCENTRICITY   = .00114562
INCLINATION    = 97.4870
RA_OF_ASC_NODE = 156.5390
ARG_OF_PERICENTER = 234.5227
MEAN_ANOMALY   = 125.4933

EPHEMERIS_TYPE = 0
CLASSIFICATION_TYPE = U
NORAD_CAT_ID   = 67073
ELEMENT_SET_NO = 999
REV_AT_EPOCH   = 323
BSTAR          = .41596413E-3
MEAN_MOTION_DOT = .6244E-4
MEAN_MOTION_DDOT = 0

CCSDS_OMM_VERS = 2.0
CREATION_DATE  = 
ORIGINATOR     = 

OBJECT_NAME    = ELECTRON KICK STAGE R/B
OBJECT_ID      = 2025-297C
CENTER_NAME    = EARTH
REF_FRAME      = TEME
TIME_SYSTEM    = UTC
MEAN_ELEMENT_THEORY = SGP/SGP4

EPOCH          = 2026-01-04T09:20:57.181344
MEAN_MOTION    = 15.69340207
ECCENTRICITY   = .01600097
INCLINATION    = 97.4771
RA_OF_ASC_NODE = 158.0727
ARG_OF_PERICENTER = 187.0427
MEAN_ANOMALY   = 172.8589

EPHEMERIS_TYPE = 0
CLASSIFICATION_TYPE = U
NORAD_CAT_ID   = 67074
ELEMENT_SET_NO = 999
REV_AT_EPOCH   = 331
BSTAR          = .19813063E-2
MEAN_MOTION_DOT = .491715E-2
MEAN_MOTION_DDOT = .7495815E-4

CCSDS_OMM_VERS = 2.0
CREATION_DATE  = 
ORIGINATOR     = 

OBJECT_NAME    = STARLINK-36230
OBJECT_ID      = 2025-298A
CENTER_NAME    = EARTH
REF_FRAME      = TEME
TIME_SYSTEM    = UTC
MEAN_ELEMENT_THEORY = SGP/SGP4

EPOCH          = 2026-01-04T14:00:01.999872
MEAN_MOTION    = 15.52492932
ECCENTRICITY   = .00036404
INCLINATION    = 69.9994
RA_OF_ASC_NODE = 185.6628
ARG_OF_PERICENTER = 269.4750
MEAN_ANOMALY   = 182.2095

EPHEMERIS_TYPE = 0
CLASSIFICATION_TYPE = U
NORAD_CAT_ID   = 67075
ELEMENT_SET_NO = 999
REV_AT_EPOCH   = 464
BSTAR          = .76022491E-3
MEAN_MOTION_DOT = .46836E-3
MEAN_MOTION_DDOT = 0

CCSDS_OMM_VERS = 2.0
CREATION_DATE  = 
ORIGINATOR     = 

OBJECT_NAME    = STARLINK-36240
OBJECT_ID      = 2025-298B
CENTER_NAME    = EARTH
REF_FRAME      = TEME
TIME_SYSTEM    = UTC
MEAN_ELEMENT_THEORY = SGP/SGP4

EPOCH          = 2026-01-04T14:00:01.999872
MEAN_MOTION    = 15.52490407
ECCENTRICITY   = .00035268
INCLINATION    = 69.9995
RA_OF_ASC_NODE = 185.6600
ARG_OF_PERICENTER = 264.4874
MEAN_ANOMALY   = 189.1135

EPHEMERIS_TYPE = 0
CLASSIFICATION_TYPE = U
NORAD_CAT_ID   = 67076
ELEMENT_SET_NO = 999
REV_AT_EPOCH   = 464
BSTAR          = .94123826E-3
MEAN_MOTION_DOT = .58105E-3
MEAN_MOTION_DDOT = 0

CCSDS_OMM_VERS = 2.0
CREATION_DATE  = 
ORIGINATOR     = 

OBJECT_NAME    = STARLINK-36243
OBJECT_ID      = 2025-298C
CENTER_NAME    = EARTH
REF_FRAME      = TEME
TIME_SYSTEM    = UTC
MEAN_ELEMENT_THEORY = SGP/SGP4

EPOCH          = 2026-01-04T14:00:01.999872
MEAN_MOTION    = 15.52554045
ECCENTRICITY   = .00033149
INCLINATION    = 69.9995
RA_OF_ASC_NODE = 185.6580
ARG_OF_PERICENTER = 269.2738
MEAN_ANOMALY   = 186.2274

EPHEMERIS_TYPE = 0
CLASSIFICATION_TYPE = U
NORAD_CAT_ID   = 67077
ELEMENT_SET_NO = 999
REV_AT_EPOCH   = 464
BSTAR          = -.98470369E-3
MEAN_MOTION_DOT = -.60366E-3
MEAN_MOTION_DDOT = 0

CCSDS_OMM_VERS = 2.0
CREATION_DATE  = 
ORIGINATOR     = 

OBJECT_NAME    = STARLINK-36236
OBJECT_ID      = 2025-298D
CENTER_NAME    = EARTH
REF_FRAME      = TEME
TIME_SYSTEM    = UTC
MEAN_ELEMENT_THEORY = SGP/SGP4

EPOCH          = 2026-01-04T14:00:01.999872
MEAN_MOTION    = 15.52548677
ECCENTRICITY   = .00033938
INCLINATION    = 69.9994
RA_OF_ASC_NODE = 185.6553
ARG_OF_PERICENTER = 269.9119
MEAN_ANOMALY   = 187.5034

EPHEMERIS_TYPE = 0
CLASSIFICATION_TYPE = U
NORAD_CAT_ID   = 67078
ELEMENT_SET_NO = 999
REV_AT_EPOCH   = 464
BSTAR          = -.74368827E-3
MEAN_MOTION_DOT = -.45707E-3
MEAN_MOTION_DDOT = 0

CCSDS_OMM_VERS = 2.0
CREATION_DATE  = 
ORIGINATOR     = 

OBJECT_NAME    = STARLINK-36159
OBJECT_ID      = 2025-298E
CENTER_NAME    = EARTH
REF_FRAME      = TEME
TIME_SYSTEM    = UTC
MEAN_ELEMENT_THEORY = SGP/SGP4

EPOCH          = 2026-01-04T14:00:01.999872
MEAN_MOTION    = 15.42717375
ECCENTRICITY   = .00033981
INCLINATION    = 69.9997
RA_OF_ASC_NODE = 185.8341
ARG_OF_PERICENTER = 265.9603
MEAN_ANOMALY   = 36.3005

EPHEMERIS_TYPE = 0
CLASSIFICATION_TYPE = U
NORAD_CAT_ID   = 67079
ELEMENT_SET_NO = 999
REV_AT_EPOCH   = 464
BSTAR          = .8980968E-4
MEAN_MOTION_DOT = .3787E-4
MEAN_MOTION_DDOT = 0

CCSDS_OMM_VERS = 2.0
CREATION_DATE  = 
ORIGINATOR     = 

OBJECT_NAME    = STARLINK-36158
OBJECT_ID      = 2025-298F
CENTER_NAME    = EARTH
REF_FRAME      = TEME
TIME_SYSTEM    = UTC
MEAN_ELEMENT_THEORY = SGP/SGP4

EPOCH          = 2026-01-04T14:00:01.999872
MEAN_MOTION    = 15.52872968
ECCENTRICITY   = .00034135
INCLINATION    = 69.9997
RA_OF_ASC_NODE = 185.6518
ARG_OF_PERICENTER = 274.4416
MEAN_ANOMALY   = 186.7486

EPHEMERIS_TYPE = 0
CLASSIFICATION_TYPE = U
NORAD_CAT_ID   = 67080
ELEMENT_SET_NO = 999
REV_AT_EPOCH   = 458
BSTAR          = -.17608419E-1
MEAN_MOTION_DOT = -.1002748E-1
MEAN_MOTION_DDOT = 0

CCSDS_OMM_VERS = 2.0
CREATION_DATE  = 
ORIGINATOR     = 

OBJECT_NAME    = STARLINK-35864
OBJECT_ID      = 2025-298G
CENTER_NAME    = EARTH
REF_FRAME      = TEME
TIME_SYSTEM    = UTC
MEAN_ELEMENT_THEORY = SGP/SGP4

EPOCH          = 2026-01-04T14:00:01.999872
MEAN_MOTION    = 15.50491573
ECCENTRICITY   = .00037071
INCLINATION    = 69.9996
RA_OF_ASC_NODE = 185.6517
ARG_OF_PERICENTER = 273.3341
MEAN_ANOMALY   = 188.1504

EPHEMERIS_TYPE = 0
CLASSIFICATION_TYPE = U
NORAD_CAT_ID   = 67081
ELEMENT_SET_NO = 999
REV_AT_EPOCH   = 464
BSTAR          = -.41102729E-1
MEAN_MOTION_DOT = -.2092632E-1
MEAN_MOTION_DDOT = 0

CCSDS_OMM_VERS = 2.0
CREATION_DATE  = 
ORIGINATOR     = 

OBJECT_NAME    = STARLINK-36035
OBJECT_ID      = 2025-298H
CENTER_NAME    = EARTH
REF_FRAME      = TEME
TIME_SYSTEM    = UTC
MEAN_ELEMENT_THEORY = SGP/SGP4

EPOCH          = 2026-01-04T14:00:01.999872
MEAN_MOTION    = 15.47410808
ECCENTRICITY   = .00037026
INCLINATION    = 69.9996
RA_OF_ASC_NODE = 185.6584
ARG_OF_PERICENTER = 274.4903
MEAN_ANOMALY   = 180.1349

EPHEMERIS_TYPE = 0
CLASSIFICATION_TYPE = U
NORAD_CAT_ID   = 67082
ELEMENT_SET_NO = 999
REV_AT_EPOCH   = 464
BSTAR          = -.45555812E-1
MEAN_MOTION_DOT = -.2081559E-1
MEAN_MOTION_DDOT = 0

CCSDS_OMM_VERS = 2.0
CREATION_DATE  = 
ORIGINATOR     = 

OBJECT_NAME    = STARLINK-36170
OBJECT_ID      = 2025-298J
CENTER_NAME    = EARTH
REF_FRAME      = TEME
TIME_SYSTEM    = UTC
MEAN_ELEMENT_THEORY = SGP/SGP4

EPOCH          = 2026-01-04T14:00:01.999872
MEAN_MOTION    = 15.52545961
ECCENTRICITY   = .00034955
INCLINATION    = 69.9996
RA_OF_ASC_NODE = 185.6439
ARG_OF_PERICENTER = 268.1093
MEAN_ANOMALY   = 198.8926

EPHEMERIS_TYPE = 0
CLASSIFICATION_TYPE = U
NORAD_CAT_ID   = 67083
ELEMENT_SET_NO = 999
REV_AT_EPOCH   = 464
BSTAR          = -.72663057E-3
MEAN_MOTION_DOT = -.44665E-3
MEAN_MOTION_DDOT = 0

